[{"OBJECT_NAME":"JCSAT-110A (JCSAT-15)","OBJECT_ID":"2016-082A","EPOCH":"2026-04-26T22:38:50.005248","MEAN_MOTION":1.00267723,"ECCENTRICITY":7.337e-5,"INCLINATION":0.0164,"RA_OF_ASC_NODE":235.0459,"ARG_OF_PERICENTER":168.4181,"MEAN_ANOMALY":261.2532,"EPHEMERIS_TYPE":0,"CLASSIFICATION_TYPE":"U","NORAD_CAT_ID":41903,"ELEMENT_SET_NO":999,"REV_AT_EPOCH":3424,"BSTAR":0,"MEAN_MOTION_DOT":0,"MEAN_MOTION_DDOT":0},{"OBJECT_NAME":"STAR ONE D1","OBJECT_ID":"2016-082B","EPOCH":"2026-04-26T21:43:25.320288","MEAN_MOTION":1.00272912,"ECCENTRICITY":0.00022129,"INCLINATION":0.0207,"RA_OF_ASC_NODE":99.7175,"ARG_OF_PERICENTER":301.8745,"MEAN_ANOMALY":55.178,"EPHEMERIS_TYPE":0,"CLASSIFICATION_TYPE":"U","NORAD_CAT_ID":41904,"ELEMENT_SET_NO":999,"REV_AT_EPOCH":3426,"BSTAR":0,"MEAN_MOTION_DOT":-2.22e-6,"MEAN_MOTION_DDOT":0},{"OBJECT_NAME":"TJS-2","OBJECT_ID":"2017-001A","EPOCH":"2026-04-26T23:02:21.643008","MEAN_MOTION":1.00272956,"ECCENTRICITY":0.00010522,"INCLINATION":0.7027,"RA_OF_ASC_NODE":85.8858,"ARG_OF_PERICENTER":296.8727,"MEAN_ANOMALY":244.3242,"EPHEMERIS_TYPE":0,"CLASSIFICATION_TYPE":"U","NORAD_CAT_ID":41911,"ELEMENT_SET_NO":999,"REV_AT_EPOCH":3420,"BSTAR":0,"MEAN_MOTION_DOT":-1.7e-7,"MEAN_MOTION_DDOT":0},{"OBJECT_NAME":"SBIRS GEO-4 (USA 273)","OBJECT_ID":"2017-004A","EPOCH":"2026-04-26T22:19:40.429920","MEAN_MOTION":1.00272342,"ECCENTRICITY":0.00023199,"INCLINATION":2.1488,"RA_OF_ASC_NODE":41.8248,"ARG_OF_PERICENTER":346.7316,"MEAN_ANOMALY":182.183,"EPHEMERIS_TYPE":0,"CLASSIFICATION_TYPE":"U","NORAD_CAT_ID":41937,"ELEMENT_SET_NO":999,"REV_AT_EPOCH":3408,"BSTAR":0,"MEAN_MOTION_DOT":1.14e-6,"MEAN_MOTION_DDOT":0},{"OBJECT_NAME":"HISPASAT 36W-1","OBJECT_ID":"2017-006A","EPOCH":"2026-04-26T18:31:50.912256","MEAN_MOTION":1.00272909,"ECCENTRICITY":9.592e-5,"INCLINATION":0.0042,"RA_OF_ASC_NODE":58.6696,"ARG_OF_PERICENTER":330.8938,"MEAN_ANOMALY":67.1714,"EPHEMERIS_TYPE":0,"CLASSIFICATION_TYPE":"U","NORAD_CAT_ID":41942,"ELEMENT_SET_NO":999,"REV_AT_EPOCH":3373,"BSTAR":0,"MEAN_MOTION_DOT":-2.56e-6,"MEAN_MOTION_DDOT":0},{"OBJECT_NAME":"TELKOM 3S","OBJECT_ID":"2017-007A","EPOCH":"2026-04-26T22:41:04.790112","MEAN_MOTION":1.00270823,"ECCENTRICITY":0.00023893,"INCLINATION":0.0048,"RA_OF_ASC_NODE":205.6643,"ARG_OF_PERICENTER":196.5978,"MEAN_ANOMALY":270.9517,"EPHEMERIS_TYPE":0,"CLASSIFICATION_TYPE":"U","NORAD_CAT_ID":41944,"ELEMENT_SET_NO":999,"REV_AT_EPOCH":3362,"BSTAR":0,"MEAN_MOTION_DOT":-3.74e-6,"MEAN_MOTION_DDOT":0},{"OBJECT_NAME":"INTELSAT 32E (IS-32E)","OBJECT_ID":"2017-007B","EPOCH":"2026-04-26T20:12:26.773920","MEAN_MOTION":1.00268397,"ECCENTRICITY":5.938e-5,"INCLINATION":0.0202,"RA_OF_ASC_NODE":246.5188,"ARG_OF_PERICENTER":89.3738,"MEAN_ANOMALY":138.891,"EPHEMERIS_TYPE":0,"CLASSIFICATION_TYPE":"U","NORAD_CAT_ID":41945,"ELEMENT_SET_NO":999,"REV_AT_EPOCH":3371,"BSTAR":0,"MEAN_MOTION_DOT":0,"MEAN_MOTION_DDOT":0},{"OBJECT_NAME":"ECHOSTAR 23","OBJECT_ID":"2017-014A","EPOCH":"2026-04-26T21:36:03.525984","MEAN_MOTION":1.00271065,"ECCENTRICITY":0.00020441,"INCLINATION":0.0162,"RA_OF_ASC_NODE":249.8035,"ARG_OF_PERICENTER":147.0096,"MEAN_ANOMALY":32.1976,"EPHEMERIS_TYPE":0,"CLASSIFICATION_TYPE":"U","NORAD_CAT_ID":42070,"ELEMENT_SET_NO":999,"REV_AT_EPOCH":3340,"BSTAR":0,"MEAN_MOTION_DOT":-6.8e-7,"MEAN_MOTION_DDOT":0},{"OBJECT_NAME":"WGS F9 (USA 275)","OBJECT_ID":"2017-016A","EPOCH":"2026-04-26T19:47:38.565888","MEAN_MOTION":1.0027261,"ECCENTRICITY":6.02e-5,"INCLINATION":0.0086,"RA_OF_ASC_NODE":237.1501,"ARG_OF_PERICENTER":66.3342,"MEAN_ANOMALY":196.2826,"EPHEMERIS_TYPE":0,"CLASSIFICATION_TYPE":"U","NORAD_CAT_ID":42075,"ELEMENT_SET_NO":999,"REV_AT_EPOCH":3338,"BSTAR":0,"MEAN_MOTION_DOT":-1.07e-6,"MEAN_MOTION_DDOT":0},{"OBJECT_NAME":"SES-10","OBJECT_ID":"2017-017A","EPOCH":"2026-04-26T21:48:24.840576","MEAN_MOTION":1.002721,"ECCENTRICITY":0.00029214,"INCLINATION":0.0288,"RA_OF_ASC_NODE":21.0613,"ARG_OF_PERICENTER":29.0112,"MEAN_ANOMALY":65.0429,"EPHEMERIS_TYPE":0,"CLASSIFICATION_TYPE":"U","NORAD_CAT_ID":42432,"ELEMENT_SET_NO":999,"REV_AT_EPOCH":3324,"BSTAR":0,"MEAN_MOTION_DOT":-2.84e-6,"MEAN_MOTION_DDOT":0},{"OBJECT_NAME":"CHINASAT 16 (SJ-13)","OBJECT_ID":"2017-018A","EPOCH":"2026-04-25T20:41:11.973696","MEAN_MOTION":1.00274178,"ECCENTRICITY":0.00046336,"INCLINATION":0.1045,"RA_OF_ASC_NODE":86.8445,"ARG_OF_PERICENTER":163.9351,"MEAN_ANOMALY":23.8943,"EPHEMERIS_TYPE":0,"CLASSIFICATION_TYPE":"U","NORAD_CAT_ID":42662,"ELEMENT_SET_NO":999,"REV_AT_EPOCH":3322,"BSTAR":0,"MEAN_MOTION_DOT":-3.66e-6,"MEAN_MOTION_DDOT":0},{"OBJECT_NAME":"KOREASAT 7","OBJECT_ID":"2017-023A","EPOCH":"2026-04-26T22:40:27.350400","MEAN_MOTION":1.00271496,"ECCENTRICITY":9.866e-5,"INCLINATION":0.0253,"RA_OF_ASC_NODE":334.6869,"ARG_OF_PERICENTER":67.6493,"MEAN_ANOMALY":268.6161,"EPHEMERIS_TYPE":0,"CLASSIFICATION_TYPE":"U","NORAD_CAT_ID":42691,"ELEMENT_SET_NO":999,"REV_AT_EPOCH":3285,"BSTAR":0,"MEAN_MOTION_DOT":-3.73e-6,"MEAN_MOTION_DDOT":0},{"OBJECT_NAME":"SGDC","OBJECT_ID":"2017-023B","EPOCH":"2026-04-26T14:41:04.808544","MEAN_MOTION":1.00271005,"ECCENTRICITY":0.00028323,"INCLINATION":0.0151,"RA_OF_ASC_NODE":97.1049,"ARG_OF_PERICENTER":309.8345,"MEAN_ANOMALY":313.0843,"EPHEMERIS_TYPE":0,"CLASSIFICATION_TYPE":"U","NORAD_CAT_ID":42692,"ELEMENT_SET_NO":999,"REV_AT_EPOCH":3288,"BSTAR":0,"MEAN_MOTION_DOT":0,"MEAN_MOTION_DDOT":0},{"OBJECT_NAME":"GSAT-9","OBJECT_ID":"2017-024A","EPOCH":"2026-04-26T23:10:44.399424","MEAN_MOTION":1.00274933,"ECCENTRICITY":0.00023436,"INCLINATION":0.0479,"RA_OF_ASC_NODE":61.4895,"ARG_OF_PERICENTER":336.3468,"MEAN_ANOMALY":262.1191,"EPHEMERIS_TYPE":0,"CLASSIFICATION_TYPE":"U","NORAD_CAT_ID":42695,"ELEMENT_SET_NO":999,"REV_AT_EPOCH":3278,"BSTAR":0,"MEAN_MOTION_DOT":-2.98e-6,"MEAN_MOTION_DDOT":0},{"OBJECT_NAME":"INMARSAT 5-F4","OBJECT_ID":"2017-025A","EPOCH":"2026-04-26T19:04:14.423232","MEAN_MOTION":1.00271426,"ECCENTRICITY":4.08e-6,"INCLINATION":0.0149,"RA_OF_ASC_NODE":239.8152,"ARG_OF_PERICENTER":169.6636,"MEAN_ANOMALY":147.897,"EPHEMERIS_TYPE":0,"CLASSIFICATION_TYPE":"U","NORAD_CAT_ID":42698,"ELEMENT_SET_NO":999,"REV_AT_EPOCH":3276,"BSTAR":0,"MEAN_MOTION_DOT":0,"MEAN_MOTION_DDOT":0},{"OBJECT_NAME":"SES-15","OBJECT_ID":"2017-026A","EPOCH":"2026-04-26T22:20:32.700192","MEAN_MOTION":1.00269945,"ECCENTRICITY":6.47e-5,"INCLINATION":0.0241,"RA_OF_ASC_NODE":326.4455,"ARG_OF_PERICENTER":44.7047,"MEAN_ANOMALY":49.7564,"EPHEMERIS_TYPE":0,"CLASSIFICATION_TYPE":"U","NORAD_CAT_ID":42709,"ELEMENT_SET_NO":999,"REV_AT_EPOCH":691,"BSTAR":0,"MEAN_MOTION_DOT":4.9e-7,"MEAN_MOTION_DDOT":0},{"OBJECT_NAME":"VIASAT-2","OBJECT_ID":"2017-029A","EPOCH":"2026-04-26T11:31:29.260128","MEAN_MOTION":1.00270805,"ECCENTRICITY":1.92e-5,"INCLINATION":0.0171,"RA_OF_ASC_NODE":268.4645,"ARG_OF_PERICENTER":94.5032,"MEAN_ANOMALY":314.4888,"EPHEMERIS_TYPE":0,"CLASSIFICATION_TYPE":"U","NORAD_CAT_ID":42740,"ELEMENT_SET_NO":999,"REV_AT_EPOCH":3268,"BSTAR":0,"MEAN_MOTION_DOT":-2.77e-6,"MEAN_MOTION_DDOT":0}]
