JCSAT-110A (JCSAT-15)   
1 41903U 16082A   26116.94363432  .00000000  00000+0  00000+0 0  9992
2 41903   0.0164 235.0459 0000733 168.4181 261.2532  1.00267723 34242
STAR ONE D1             
1 41904U 16082B   26116.90515417 -.00000222  00000+0  00000+0 0  9998
2 41904   0.0207  99.7175 0002212 301.8745  55.1780  1.00272912 34267
TJS-2                   
1 41911U 17001A   26116.95997272 -.00000017  00000+0  00000+0 0  9998
2 41911   0.7027  85.8858 0001052 296.8727 244.3242  1.00272956 34207
SBIRS GEO-4 (USA 273)   
1 41937U 17004A   26116.93032905  .00000114  00000+0  00000+0 0  9997
2 41937   2.1488  41.8248 0002319 346.7316 182.1830  1.00272342 34080
HISPASAT 36W-1          
1 41942U 17006A   26116.77211704 -.00000256  00000+0  00000+0 0  9991
2 41942   0.0042  58.6696 0000959 330.8938  67.1714  1.00272909 33737
TELKOM 3S               
1 41944U 17007A   26116.94519433 -.00000374  00000+0  00000+0 0  9994
2 41944   0.0048 205.6643 0002389 196.5978 270.9517  1.00270823 33627
INTELSAT 32E (IS-32E)   
1 41945U 17007B   26116.84197655  .00000000  00000+0  00000+0 0  9997
2 41945   0.0202 246.5188 0000593  89.3738 138.8910  1.00268397 33718
ECHOSTAR 23             
1 42070U 17014A   26116.90004081 -.00000068  00000+0  00000+0 0  9997
2 42070   0.0162 249.8035 0002044 147.0096  32.1976  1.00271065 33402
WGS F9 (USA 275)        
1 42075U 17016A   26116.82475192 -.00000107  00000+0  00000+0 0  9994
2 42075   0.0086 237.1501 0000602  66.3342 196.2826  1.00272610 33385
SES-10                  
1 42432U 17017A   26116.90862084 -.00000284  00000+0  00000+0 0  9997
2 42432   0.0288  21.0613 0002921  29.0112  65.0429  1.00272100 33248
CHINASAT 16 (SJ-13)     
1 42662U 17018A   26115.86194414 -.00000366  00000+0  00000+0 0  9993
2 42662   0.1045  86.8445 0004633 163.9351  23.8943  1.00274178 33220
KOREASAT 7              
1 42691U 17023A   26116.94476100 -.00000373  00000+0  00000+0 0  9994
2 42691   0.0253 334.6869 0000986  67.6493 268.6161  1.00271496 32859
SGDC                    
1 42692U 17023B   26116.61186121  .00000000  00000+0  00000+0 0  9996
2 42692   0.0151  97.1049 0002832 309.8345 313.0843  1.00271005 32888
GSAT-9                  
1 42695U 17024A   26116.96579166 -.00000298  00000+0  00000+0 0  9993
2 42695   0.0479  61.4895 0002343 336.3468 262.1191  1.00274933 32787
INMARSAT 5-F4           
1 42698U 17025A   26116.79461138  .00000000  00000+0  00000+0 0  9997
2 42698   0.0149 239.8152 0000040 169.6636 147.8970  1.00271426 32763
SES-15                  
1 42709U 17026A   26116.93093403  .00000049  00000+0  00000+0 0  9996
2 42709   0.0241 326.4455 0000647  44.7047  49.7564  1.00269945  6910
VIASAT-2                
1 42740U 17029A   26116.48019977 -.00000277  00000+0  00000+0 0  9992
2 42740   0.0171 268.4645 0000192  94.5032 314.4888  1.00270805 32686
